STARLINK-4596           
1 53624U 22104AN  26068.72431589 -.00000158  00000+0  81557-5 0  9995
2 53624  53.2167 233.7245 0001281  79.3996 280.7140 15.08839834195755
YAM-8                   
1 63254U 25052AW  26068.73092778  .00007810  00000+0  47267-3 0  9993
2 63254  97.7023 329.5345 0002369 152.6796 207.4558 15.10898938 54245
